[{"OBJECT_NAME":"OBJECT C","OBJECT_ID":"2023-104C","EPOCH":"2026-03-09T22:39:44.230752","MEAN_MOTION":15.26846312,"ECCENTRICITY":0.00113074,"INCLINATION":97.273,"RA_OF_ASC_NODE":135.3333,"ARG_OF_PERICENTER":3.876,"MEAN_ANOMALY":356.2565,"EPHEMERIS_TYPE":0,"CLASSIFICATION_TYPE":"U","NORAD_CAT_ID":57426,"ELEMENT_SET_NO":999,"REV_AT_EPOCH":14663,"BSTAR":0.00062618506,"MEAN_MOTION_DOT":0.00016495,"MEAN_MOTION_DDOT":0},{"OBJECT_NAME":"STARLINK-31445","OBJECT_ID":"2024-056S","EPOCH":"2026-03-09T18:19:03.882432","MEAN_MOTION":15.2756585,"ECCENTRICITY":0.0001523,"INCLINATION":42.9999,"RA_OF_ASC_NODE":237.3767,"ARG_OF_PERICENTER":276.6676,"MEAN_ANOMALY":83.4003,"EPHEMERIS_TYPE":0,"CLASSIFICATION_TYPE":"U","NORAD_CAT_ID":59312,"ELEMENT_SET_NO":999,"REV_AT_EPOCH":11108,"BSTAR":-5.7292567e-5,"MEAN_MOTION_DOT":-1.838e-5,"MEAN_MOTION_DDOT":0}]
